QIANFAN-41              
1 62242U 24232F   25326.09804303  .00000191  00000+0  27747-3 0  9994
2 62242  89.0042  43.2767 0012481 245.7949 114.1898 13.50977852 96460
QIANFAN-42              
1 62243U 24232G   25326.05012316  .00000620  00000+0  26118-3 0  9994
2 62243  89.0034  39.7173 0016549 146.2857 213.9392 14.24459453 98424
QIANFAN-43              
1 62244U 24232H   25326.09386418  .00000184  00000+0  26660-3 0  9993
2 62244  89.0047  43.3414 0013886 252.2146 107.7490 13.50978452 65075
QIANFAN-44              
1 62245U 24232J   25326.08158791  .00000175  00000+0  25325-3 0  9991
2 62245  89.0045  43.1538 0012153 248.3327 111.6530 13.50973160 96548
QIANFAN-45              
1 62246U 24232K   25326.04863870  .00000165  00000+0  23690-3 0  9991
2 62246  89.0049  43.3028 0012821 248.3174 111.6613 13.50976962 96467
QIANFAN-46              
1 62247U 24232L   25326.07335911  .00000181  00000+0  26276-3 0  9996
2 62247  89.0045  43.3702 0012765 254.4923 105.4819 13.50975160 96424
QIANFAN-47              
1 62248U 24232M   25326.07746553  .00000184  00000+0  26620-3 0  9991
2 62248  89.0041  43.3036 0013210 253.6389 106.3310 13.50977735 96453
QIANFAN-48              
1 62249U 24232N   25326.04041620  .00000177  00000+0  25555-3 0  9990
2 62249  89.0045  43.3083 0015417 257.2181 102.7247 13.50972823 96453
